[{"OBJECT_NAME":"STARLINK-31837","OBJECT_ID":"2024-183F","EPOCH":"2026-03-09T12:00:25.542432","MEAN_MOTION":15.30184239,"ECCENTRICITY":0.00012076,"INCLINATION":53.1605,"RA_OF_ASC_NODE":143.3068,"ARG_OF_PERICENTER":89.8625,"MEAN_ANOMALY":270.2514,"EPHEMERIS_TYPE":0,"CLASSIFICATION_TYPE":"U","NORAD_CAT_ID":61514,"ELEMENT_SET_NO":999,"REV_AT_EPOCH":7962,"BSTAR":1.184916e-5,"MEAN_MOTION_DOT":-8.0e-8,"MEAN_MOTION_DDOT":0},{"OBJECT_NAME":"TEVEL2-8","OBJECT_ID":"2025-052AF","EPOCH":"2026-03-09T16:02:08.542752","MEAN_MOTION":15.28392908,"ECCENTRICITY":0.0008031,"INCLINATION":97.4055,"RA_OF_ASC_NODE":324.2923,"ARG_OF_PERICENTER":124.9191,"MEAN_ANOMALY":235.2804,"EPHEMERIS_TYPE":0,"CLASSIFICATION_TYPE":"U","NORAD_CAT_ID":63239,"ELEMENT_SET_NO":999,"REV_AT_EPOCH":5480,"BSTAR":0.00069303947,"MEAN_MOTION_DOT":0.0001913,"MEAN_MOTION_DDOT":0}]
