STARLINK-31837          
1 61514U 24183F   26068.50029563 -.00000008  00000+0  11849-4 0  9992
2 61514  53.1605 143.3068 0001207  89.8625 270.2514 15.30184239 79623
TEVEL2-8                
1 63239U 25052AF  26068.66815442  .00019130  00000+0  69304-3 0  9993
2 63239  97.4055 324.2923 0008031 124.9191 235.2804 15.28392908 54807
